NORAD_CAT_ID,OBJECT_NAME,OBJECT_TYPE,EPOCH,MEAN_MOTION,ECCENTRICITY,INCLINATION,RA_OF_ASC_NODE,ARG_OF_PERICENTER,MEAN_ANOMALY,BSTAR,MEAN_MOTION_DOT,MEAN_MOTION_DDOT,TLE_LINE0,TLE_LINE1,TLE_LINE2,SEMIMAJOR_AXIS,PERIOD,APOGEE,PERIGEE,DECAYED
52363.0,STARLINK-3830,PAYLOAD,2023-07-28 03:41:30,15.08832438,0.000124,53.2177,168.6884,84.1464,275.967,-7.8949e-05,-1.544e-05,0.0,0 STARLINK-3830,1 52363U 22045AJ  23209.15382218 -.00001544  00000-0 -78949-4 0  9995,2 52363  53.2177 168.6884 0001240  84.1464 275.9670 15.08832438 71535,6917.904,95.438,540.626,538.911,0.0
52363.0,STARLINK-3830,PAYLOAD,2023-07-28 14:49:11,15.08838994,0.0001194,53.218,166.6065,88.25,271.8629,-1.645e-05,-5.5e-06,0.0,0 STARLINK-3830,1 52363U 22045AJ  23209.61749675 -.00000550  00000-0 -16450-4 0  9995,2 52363  53.2180 166.6065 0001194  88.2500 271.8629 15.08838994 71602,6917.883,95.438,540.574,538.922,0.0
52363.0,STARLINK-3830,PAYLOAD,2023-07-29 03:32:15,15.08849442,0.0001208,53.2181,164.228,92.3901,267.7229,8.8905e-05,1.128e-05,0.0,0 STARLINK-3830,1 52363U 22045AJ  23210.14740708  .00001128  00000-0  88905-4 0  9997,2 52363  53.2181 164.2280 0001208  92.3901 267.7229 15.08849442 71681,6917.852,95.437,540.552,538.881,0.0
52363.0,STARLINK-3830,PAYLOAD,2023-07-30 01:47:40,15.0883896,0.0001194,53.2174,160.0653,81.9024,278.2104,0.00019682,2.846e-05,0.0,0 STARLINK-3830,1 52363U 22045AJ  23211.07477378  .00002846  00000-0  19682-3 0  9993,2 52363  53.2174 160.0653 0001194  81.9024 278.2104 15.08838960 71823,6917.884,95.438,540.575,538.923,0.0
52363.0,STARLINK-3830,PAYLOAD,2023-07-31 03:13:50,15.08847064,0.0001324,53.2188,155.3109,93.3354,266.779,7.8015e-07,-2.75e-06,0.0,0 STARLINK-3830,1 52363U 22045AJ  23212.13461332 -.00000275  00000-0  78015-6 0  9997,2 52363  53.2188 155.3109 0001324  93.3354 266.7790 15.08847064 71984,6917.859,95.437,540.64,538.808,0.0
52363.0,STARLINK-3830,PAYLOAD,2023-07-31 12:46:09,15.08841438,0.0001261,53.2185,153.5269,92.3136,267.8,-2.5712e-05,-6.97e-06,0.0,0 STARLINK-3830,1 52363U 22045AJ  23212.53205686 -.00000697  00000-0 -25712-4 0  9992,2 52363  53.2185 153.5269 0001261  92.3136 267.8000 15.08841438 72048,6917.876,95.437,540.613,538.869,0.0
52363.0,STARLINK-3830,PAYLOAD,2023-08-01 01:29:15,15.08835576,0.0001417,53.2193,151.1488,105.2797,254.8352,-4.8899e-05,-1.066e-05,0.0,0 STARLINK-3830,1 52363U 22045AJ  23213.06198308 -.00001066  00000-0 -48899-4 0  9995,2 52363  53.2193 151.1488 0001417 105.2797 254.8352 15.08835576 72125,6917.894,95.438,540.739,538.779,0.0
52363.0,STARLINK-3830,PAYLOAD,2023-08-02 02:55:25,15.08841707,0.0001198,53.2182,146.3885,96.6747,263.4381,4.7239e-05,4.64e-06,0.0,0 STARLINK-3830,1 52363U 22045AJ  23214.12181986  .00000464  00000-0  47239-4 0  9993,2 52363  53.2182 146.3885 0001198  96.6747 263.4381 15.08841707 72282,6917.875,95.437,540.569,538.911,0.0
52363.0,STARLINK-3830,PAYLOAD,2023-08-03 04:21:34,15.08848079,0.0001179,53.2179,141.6302,86.1072,274.0055,0.00020499,2.977e-05,0.0,0 STARLINK-3830,1 52363U 22045AJ  23215.18165457  .00002977  00000-0  20499-3 0  9994,2 52363  53.2179 141.6302 0001179  86.1072 274.0055 15.08848079 72447,6917.856,95.437,540.536,538.905,0.0
52363.0,STARLINK-3830,PAYLOAD,2023-08-04 02:36:59,15.08841121,0.0001079,53.2174,137.4655,87.3205,272.791,3.207e-05,2.23e-06,0.0,0 STARLINK-3830,1 52363U 22045AJ  23216.10902488  .00000223  00000-0  32070-4 0  9991,2 52363  53.2174 137.4655 0001079  87.3205 272.7910 15.08841121 72587,6917.877,95.437,540.488,538.996,0.0
52363.0,STARLINK-3830,PAYLOAD,2023-08-05 00:52:22,15.08871473,0.000102,53.2176,133.3014,84.3852,275.7256,-0.00030396,-5.126e-05,0.0,0 STARLINK-3830,1 52363U 22045AJ  23217.03637633 -.00005126  00000-0 -30396-3 0  9998,2 52363  53.2176 133.3014 0001020  84.3852 275.7256 15.08871473 72729,6917.784,95.436,540.355,538.944,0.0
52363.0,STARLINK-3830,PAYLOAD,2023-08-05 04:03:08,15.08884877,9.89e-05,53.2176,132.7053,80.2623,279.8481,-0.00040667,-6.762e-05,0.0,0 STARLINK-3830,1 52363U 22045AJ  23217.16884760 -.00006762  00000-0 -40667-3 0  9996,2 52363  53.2176 132.7053 0000989  80.2623 279.8481 15.08884877 72748,6917.743,95.435,540.292,538.924,0.0
52363.0,STARLINK-3830,PAYLOAD,2023-08-06 00:43:09,15.08855056,0.0001225,53.217,128.8411,95.7352,264.378,0.00029233,4.369e-05,0.0,0 STARLINK-3830,1 52363U 22045AJ  23218.02997580  .00004369  00000-0  29233-3 0  9992,2 52363  53.2170 128.8411 0001225  95.7352 264.3780 15.08855056 72872,6917.834,95.437,540.547,538.852,0.0
52363.0,STARLINK-3830,PAYLOAD,2023-08-07 03:44:45,15.08830351,0.0001129,53.2182,123.7872,102.4064,257.7055,-9.2883e-05,-1.765e-05,0.0,0 STARLINK-3830,1 52363U 22045AJ  23219.15607718 -.00001765  00000-0 -92883-4 0  9999,2 52363  53.2182 123.7872 0001129 102.4064 257.7055 15.08830351 73041,6917.91,95.438,540.556,538.994,0.0
52363.0,STARLINK-3830,PAYLOAD,2023-08-08 00:24:44,15.08856159,9.95e-05,53.2177,119.9232,101.1738,258.9366,7.2443e-05,8.66e-06,0.0,0 STARLINK-3830,1 52363U 22045AJ  23220.01717648  .00000866  00000-0  72443-4 0  9999,2 52363  53.2177 119.9232 0000995 101.1738 258.9366 15.08856159 73172,6917.831,95.437,540.384,539.008,0.0
52363.0,STARLINK-3830,PAYLOAD,2023-08-08 09:57:03,15.08851779,0.0001074,53.2173,118.1402,101.4248,258.6865,3.2725e-05,2.33e-06,0.0,0 STARLINK-3830,1 52363U 22045AJ  23220.41461845  .00000233  00000-0  32725-4 0  9995,2 52363  53.2173 118.1402 0001074 101.4248 258.6865 15.08851779 73237,6917.844,95.437,540.452,538.966,0.0
52363.0,STARLINK-3830,PAYLOAD,2023-08-08 16:18:36,15.08830082,0.0001381,53.2177,116.9529,125.8426,234.2695,0.00033047,4.974e-05,0.0,0 STARLINK-3830,1 52363U 22045AJ  23220.67958685  .00004974  00000-0  33047-3 0  9999,2 52363  53.2177 116.9529 0001381 125.8426 234.2695 15.08830082 73275,6917.911,95.438,540.731,538.82,0.0
52363.0,STARLINK-3830,PAYLOAD,2023-08-09 20:55:33,15.08839967,0.0001282,53.2186,111.6006,112.0076,248.1053,-5.2637e-05,-1.125e-05,0.0,0 STARLINK-3830,1 52363U 22045AJ  23221.87191510 -.00001125  00000-0 -52637-4 0  9992,2 52363  53.2186 111.6006 0001282 112.0076 248.1053 15.08839967 73459,6917.88,95.438,540.632,538.859,0.0
52363.0,STARLINK-3830,PAYLOAD,2023-08-11 09:29:25,15.08842886,0.0001269,53.2176,104.7603,75.2626,284.8506,5.0415e-05,5.15e-06,0.0,0 STARLINK-3830,1 52363U 22045AJ  23223.39542985  .00000515  00000-0  50415-4 0  9999,2 52363  53.2176 104.7603 0001269  75.2626 284.8506 15.08842886 73689,6917.872,95.437,540.614,538.859,0.0
52363.0,STARLINK-3830,PAYLOAD,2023-08-11 23:47:53,15.08837975,9.6e-05,53.2171,102.0824,78.209,281.901,4.6204e-05,4.48e-06,0.0,0 STARLINK-3830,1 52363U 22045AJ  23223.99159347  .00000448  00000-0  46204-4 0  9997,2 52363  53.2171 102.0824 0000960  78.2090 281.9010 15.08837975 73776,6917.887,95.438,540.416,539.087,0.0
52363.0,STARLINK-3830,PAYLOAD,2023-08-13 01:14:02,15.08850471,0.0001128,53.217,97.3246,75.8338,284.278,9.5318e-05,1.23e-05,0.0,0 STARLINK-3830,1 52363U 22045AJ  23225.05142297  .00001230  00000-0  95318-4 0  9992,2 52363  53.2170  97.3246 0001128  75.8338 284.2780 15.08850471 73938,6917.848,95.437,540.494,538.933,0.0
52363.0,STARLINK-3830,PAYLOAD,2023-08-13 18:43:18,15.08825367,0.0001131,53.2166,94.0527,77.0479,283.0639,6.9285e-05,8.15e-06,0.0,0 STARLINK-3830,1 52363U 22045AJ  23225.78008015  .00000815  00000-0  69285-4 0  9993,2 52363  53.2166  94.0527 0001131  77.0479 283.0639 15.08825367 74042,6917.925,95.438,540.573,539.008,0.0
52363.0,STARLINK-3830,PAYLOAD,2023-08-14 01:04:50,15.0883828,0.0001162,53.2171,92.8622,85.7185,274.394,-1.4796e-05,-5.23e-06,0.0,0 STARLINK-3830,1 52363U 22045AJ  23226.04503424 -.00000523  00000-0 -14796-4 0  9992,2 52363  53.2171  92.8622 0001162  85.7185 274.3940 15.08838280 74084,6917.886,95.438,540.555,538.947,0.0
52363.0,STARLINK-3830,PAYLOAD,2023-08-14 23:20:14,15.08844968,0.000108,53.2178,88.6992,89.9215,270.19,9.3378e-06,-1.39e-06,0.0,0 STARLINK-3830,1 52363U 22045AJ  23226.97238860 -.00000139  00000-0  93378-5 0  9999,2 52363  53.2178  88.6992 0001080  89.9215 270.1900 15.08844968 74229,6917.865,95.437,540.477,538.983,0.0
52363.0,STARLINK-3830,PAYLOAD,2023-08-15 13:38:43,15.08834623,0.0001217,53.2179,86.0231,89.5334,270.5797,5.8112e-05,6.37e-06,0.0,0 STARLINK-3830,1 52363U 22045AJ  23227.56855434  .00000637  00000-0  58112-4 0  9995,2 52363  53.2179  86.0231 0001217  89.5334 270.5797 15.08834623 74313,6917.897,95.438,540.604,538.92,0.0
52363.0,STARLINK-3830,PAYLOAD,2023-08-17 00:37:12,15.08836966,0.0001354,53.2153,79.4819,92.9014,267.2133,2.6602e-05,1.35e-06,0.0,0 STARLINK-3830,1 52363U 22045AJ  23229.02583702  .00000135  00000-0  26602-4 0  9996,2 52363  53.2153  79.4819 0001354  92.9014 267.2133 15.08836966 74531,6917.89,95.438,540.691,538.818,0.0
52363.0,STARLINK-3830,PAYLOAD,2023-08-17 22:52:35,15.08842027,0.0001409,53.2159,75.3188,86.4073,273.708,9.1702e-05,1.172e-05,0.0,0 STARLINK-3830,1 52363U 22045AJ  23229.95319229  .00001172  00000-0  91702-4 0  9994,2 52363  53.2159  75.3188 0001409  86.4073 273.7080 15.08842027 74678,6917.874,95.437,540.714,538.764,0.0
52363.0,STARLINK-3830,PAYLOAD,2023-08-18 14:46:27,15.08835131,0.0001312,53.2181,72.3448,87.1109,273.0033,-3.141e-06,-3.38e-06,0.0,0 STARLINK-3830,1 52363U 22045AJ  23230.61560077 -.00000338  00000-0 -31410-5 0  9994,2 52363  53.2181  72.3448 0001312  87.1109 273.0033 15.08835131 74770,6917.895,95.438,540.668,538.853,0.0
52363.0,STARLINK-3830,PAYLOAD,2023-08-19 22:34:10,15.08834557,0.0001339,53.2158,66.3958,96.0399,264.0746,3.9362e-05,3.39e-06,0.0,0 STARLINK-3830,1 52363U 22045AJ  23231.94040184  .00000339  00000-0  39362-4 0  9995,2 52363  53.2158  66.3958 0001339  96.0399 264.0746 15.08834557 74976,6917.897,95.438,540.688,538.836,0.0
52363.0,STARLINK-3830,PAYLOAD,2023-08-20 17:38:47,15.08843207,0.0001318,53.2165,62.8282,87.9751,272.1392,0.00013369,1.841e-05,0.0,0 STARLINK-3830,1 52363U 22045AJ  23232.73527438  .00001841  00000-0  13369-3 0  9992,2 52363  53.2165  62.8282 0001318  87.9751 272.1392 15.08843207 75096,6917.871,95.437,540.647,538.824,0.0
